     2              NAVIGATION DATA                         RINEX VERSION / TYPE
CCRINEXN V1.6.0 UX  CDDIS               09-OCT-16 15:33     PGM / RUN BY / DATE 
IGS BROADCAST EPHEMERIS FILE                                COMMENT             
    0.1583D-07  0.0000D+00 -0.1192D-06  0.0000D+00          ION ALPHA           
    0.1106D+06  0.0000D+00 -0.2621D+06  0.6554D+05          ION BETA            
    0.465661287308D-08 0.799360577730D-14   589824     1917 DELTA-UTC: A0,A1,T,W
    17                                                      LEAP SECONDS        
                                                            END OF HEADER       
31 16 10  8  9 59 44.0 0.243660062552D-03-0.216004991671D-11 0.000000000000D+00
    0.100000000000D+01 0.594375000000D+02 0.430803658987D-08-0.139966390071D+01
    0.280141830444D-05 0.837451522239D-02 0.815466046333D-05 0.515356978226D+04
    0.554384000000D+06-0.782310962677D-07-0.137375411033D+01-0.987201929092D-07
    0.969431020968D+00 0.229218750000D+03-0.375566377013D+00-0.801211945122D-08
    0.170007081477D-09 0.100000000000D+01 0.191700000000D+04 0.000000000000D+00
    0.200000000000D+01 0.000000000000D+00-0.135041773319D-07 0.100000000000D+01
    0.547200000000D+06 0.400000000000D+01 0.000000000000D+00 0.000000000000D+00
 1 16 10  8 10  0  0.0 0.365204177797D-04 0.125055521494D-11 0.000000000000D+00
    0.530000000000D+02-0.267187500000D+02 0.444982821035D-08-0.587170709720D+00
   -0.149756669998D-05 0.592046126258D-02 0.836327672005D-05 0.515370387459D+04
    0.554400000000D+06 0.800937414169D-07 0.174093261832D+01 0.707805156708D-07
    0.965101475413D+00 0.220625000000D+03 0.559373223980D+00-0.803426323074D-08
    0.596453416107D-10 0.100000000000D+01 0.191700000000D+04 0.000000000000D+00
    0.200000000000D+01 0.000000000000D+00 0.512227416039D-08 0.530000000000D+02
    0.552060000000D+06 0.400000000000D+01 0.000000000000D+00 0.000000000000D+00
 2 16 10  8 10  0  0.0 0.542710069567D-03-0.511590769747D-11 0.000000000000D+00
    0.550000000000D+02-0.225312500000D+02 0.506056796468D-08-0.120908429601D+00
   -0.111572444439D-05 0.160021358170D-01 0.889971852303D-05 0.515365023041D+04
    0.554400000000D+06-0.838190317154D-07 0.169250601857D+01 0.242143869400D-06
    0.943924542475D+00 0.202375000000D+03-0.207994996206D+01-0.855428528013D-08
    0.135362776543D-09 0.100000000000D+01 0.191700000000D+04 0.000000000000D+00
    0.200000000000D+01 0.000000000000D+00-0.204890966415D-07 0.550000000000D+02
    0.547200000000D+06 0.000000000000D+00 0.000000000000D+00 0.000000000000D+00
 3 16 10  8 10  0  0.0-0.913338735700D-04-0.216004991671D-11 0.000000000000D+00
    0.600000000000D+01-0.781250000000D+00 0.462733560424D-08-0.178135490275D+01
    0.521540641785D-07 0.239945948124D-03 0.742077827454D-05 0.515360352325D+04
    0.554400000000D+06-0.279396772385D-07 0.278285251748D+01-0.279396772385D-07
    0.959704625790D+00 0.238093750000D+03 0.631015451504D+00-0.805390690612D-08
   -0.200008331150D-10 0.100000000000D+01 0.191700000000D+04 0.000000000000D+00
    0.200000000000D+01 0.000000000000D+00 0.139698386192D-08 0.600000000000D+01
    0.547218000000D+06 0.400000000000D+01 0.000000000000D+00 0.000000000000D+00
 5 16 10  8 10  0  0.0-0.859308056533D-04 0.250111042988D-11 0.000000000000D+00
    0.300000000000D+02-0.500000000000D+00 0.500270838289D-08 0.234738199018D+01
   -0.106170773506D-06 0.480747688562D-02 0.739842653274D-05 0.515360727501D+04
    0.554400000000D+06-0.335276126862D-07 0.276916208976D+01-0.298023223877D-07
    0.946722295767D+00 0.232093750000D+03 0.526770144514D+00-0.821498504424D-08
   -0.200008331150D-10 0.100000000000D+01 0.191700000000D+04 0.000000000000D+00
    0.200000000000D+01 0.000000000000D+00-0.107102096081D-07 0.300000000000D+02
    0.547200000000D+06 0.400000000000D+01 0.000000000000D+00 0.000000000000D+00
 7 16 10  8 10  0  0.0 0.421156641096D-03-0.306954461848D-11 0.000000000000D+00
    0.380000000000D+02 0.559062500000D+02 0.435268130665D-08-0.125063994990D+01
    0.289455056190D-05 0.100358133204D-01 0.687688589096D-05 0.515362983131D+04
    0.554400000000D+06 0.201165676117D-06-0.138370376290D+01-0.745058059692D-07
    0.964636840928D+00 0.245031250000D+03-0.262289647099D+01-0.800711924294D-08
    0.124648049234D-09 0.100000000000D+01 0.191700000000D+04 0.000000000000D+00
    0.200000000000D+01 0.000000000000D+00-0.111758708954D-07 0.380000000000D+02
    0.547200000000D+06 0.400000000000D+01 0.000000000000D+00 0.000000000000D+00
 8 16 10  8 10  0  0.0-0.347197055817D-04-0.147792889038D-11 0.000000000000D+00
    0.620000000000D+02-0.609062500000D+02 0.455197532233D-08 0.235179958877D+01
   -0.302679836750D-05 0.179114355706D-02 0.650808215141D-05 0.515376345444D+04
    0.554400000000D+06 0.912696123123D-07 0.679285420999D+00-0.614672899246D-07
    0.964648879281D+00 0.253156250000D+03-0.102094937372D+01-0.813355308085D-08
   -0.732173355102D-10 0.100000000000D+01 0.191700000000D+04 0.000000000000D+00
    0.200000000000D+01 0.000000000000D+00 0.512227416039D-08 0.620000000000D+02
    0.547200000000D+06 0.400000000000D+01 0.000000000000D+00 0.000000000000D+00
 9 16 10  8 10  0  0.0 0.221070367843D-03 0.727595761418D-11 0.000000000000D+00
    0.470000000000D+02 0.190625000000D+02 0.454590364085D-08 0.162113235209D+01
    0.101327896118D-05 0.572413089685D-03 0.839680433273D-05 0.515377255058D+04
    0.554400000000D+06 0.130385160446D-07-0.246246557592D+01 0.167638063431D-07
    0.954656386619D+00 0.213906250000D+03 0.191411654124D+01-0.806533595362D-08
   -0.151792037033D-09 0.100000000000D+01 0.191700000000D+04 0.000000000000D+00
    0.200000000000D+01 0.000000000000D+00 0.139698386192D-08 0.470000000000D+02
    0.547200000000D+06 0.400000000000D+01 0.000000000000D+00 0.000000000000D+00
10 16 10  8 10  0  0.0-0.105825718492D-03-0.352429196937D-11 0.000000000000D+00
    0.160000000000D+02 0.284375000000D+01 0.461019203300D-08-0.268404929208D+01
    0.160187482834D-06 0.178166863043D-02 0.756606459618D-05 0.515367348480D+04
    0.554400000000D+06 0.558793544769D-08 0.277896056730D+01 0.111758708954D-07
    0.959915613687D+00 0.233062500000D+03-0.289219220993D+01-0.798747556756D-08
    0.764317551180D-10 0.100000000000D+01 0.191700000000D+04 0.000000000000D+00
    0.200000000000D+01 0.000000000000D+00 0.232830643654D-08 0.160000000000D+02
    0.547200000000D+06 0.400000000000D+01 0.000000000000D+00 0.000000000000D+00
11 16 10  8 10  0  0.0-0.666395295411D-03-0.113686837722D-11 0.000000000000D+00
    0.510000000000D+02-0.317187500000D+02 0.605453791009D-08-0.115360037318D+01
   -0.151060521603D-05 0.168166465592D-01 0.793673098087D-05 0.515368310356D+04
    0.554400000000D+06-0.270083546638D-06 0.135438427913D+01 0.294297933578D-06
    0.897855628319D+00 0.194062500000D+03 0.158418827095D+01-0.896823070566D-08
    0.435732435719D-10 0.100000000000D+01 0.191700000000D+04 0.000000000000D+00
    0.280000000000D+01 0.000000000000D+00-0.121071934700D-07 0.510000000000D+02
    0.550800000000D+06 0.400000000000D+01 0.000000000000D+00 0.000000000000D+00
12 16 10  8 10  0  0.0 0.389139167964D-03 0.227373675443D-12 0.000000000000D+00
    0.320000000000D+02 0.984375000000D+01 0.414481550535D-08-0.184554940995D+01
    0.512227416038D-06 0.604590587318D-02 0.451877713203D-05 0.515364795685D+04
    0.554400000000D+06 0.782310962677D-07-0.304561471214D+00-0.521540641785D-07
    0.990274974733D+00 0.308156250000D+03 0.786131762686D+00-0.798426114795D-08
    0.157149403046D-09 0.100000000000D+01 0.191700000000D+04 0.000000000000D+00
    0.200000000000D+01 0.000000000000D+00-0.125728547573D-07 0.320000000000D+02
    0.547200000000D+06 0.400000000000D+01 0.000000000000D+00 0.000000000000D+00
13 16 10  8 10  0  0.0-0.481689348817D-04-0.216004991671D-11 0.000000000000D+00
    0.104000000000D+03 0.288125000000D+02 0.423624779700D-08-0.249272274482D+00
    0.138394534588D-05 0.399940891657D-02 0.862777233124D-05 0.515368879700D+04
    0.554400000000D+06-0.186264514923D-07-0.233972576891D+01-0.353902578354D-07
    0.970853000747D+00 0.218687500000D+03 0.193583469389D+01-0.792854493170D-08
   -0.180364653768D-09 0.100000000000D+01 0.191700000000D+04 0.000000000000D+00
    0.280000000000D+01 0.000000000000D+00-0.111758708954D-07 0.104000000000D+03
    0.547200000000D+06 0.000000000000D+00 0.000000000000D+00 0.000000000000D+00
14 16 10  8 10  0  0.0-0.390210188925D-04-0.193267624127D-11 0.000000000000D+00
    0.104000000000D+03 0.128750000000D+02 0.444804242168D-08 0.109417060627D+01
    0.668689608574D-06 0.874590117019D-02 0.848993659020D-05 0.515359121513D+04
    0.554400000000D+06-0.147148966789D-06-0.237763288463D+01-0.502914190292D-07
    0.963375994260D+00 0.216500000000D+03-0.194265136256D+01-0.810640909305D-08
   -0.273582824394D-09 0.100000000000D+01 0.191700000000D+04 0.000000000000D+00
    0.200000000000D+01 0.000000000000D+00-0.931322574616D-08 0.104000000000D+03
    0.549600000000D+06 0.400000000000D+01 0.000000000000D+00 0.000000000000D+00
16 16 10  8 10  0  0.0 0.101081095636D-04 0.181898940355D-11 0.000000000000D+00
    0.580000000000D+02 0.105000000000D+02 0.406838375023D-08 0.248020925810D+01
    0.573694705963D-06 0.869899685495D-02 0.503286719322D-05 0.515357630157D+04
    0.554400000000D+06-0.199303030968D-06-0.285760113890D+00-0.316649675369D-07
    0.990779165061D+00 0.298968750000D+03 0.385255378541D+00-0.785354141724D-08
    0.971469037013D-10 0.100000000000D+01 0.191700000000D+04 0.000000000000D+00
    0.200000000000D+01 0.000000000000D+00-0.107102096081D-07 0.580000000000D+02
    0.547590000000D+06 0.400000000000D+01 0.000000000000D+00 0.000000000000D+00
